STARLINK-1008
1 44714U 19074B   26205.52193367  .00057345  00000+0  85438-3 0  9996
2 44714  53.1497 249.3486 0005684 352.9647   7.1283 15.54560520370011
STARLINK-1012
1 44718U 19074F   26205.57377321  .00002883  00000+0  49747-4 0  9990
2 44718  53.1534 249.2886 0006240 354.4138   5.6803 15.54758321370010
STARLINK-1017
1 44723U 19074L   26205.48320978  .00040763  00000+0  11964-2 0  9999
2 44723  53.0454 254.8705 0000946  58.5653 301.5441 15.34781628369905
STARLINK-1020
1 44725U 19074N   26205.49032011  .00079721  00000+0  92511-3 0  9994
2 44725  53.1541 271.8391 0005505 331.1357  28.9352 15.61094101369670
STARLINK-1036
1 44741U 19074AE  26205.57042180  .00081584  00000+0  45602-3 0  9998
2 44741  53.0404 234.2349 0004659  30.1545 329.9743 15.78677544370198
STARLINK-1039
1 44744U 19074AH  26205.47285161  .00042076  00000+0  13583-2 0  9993
2 44744  53.0588 301.3527 0001268 274.9027  85.1828 15.31739123369255
STARLINK-1042
1 44747U 19074AL  26205.26466252  .00035851  00000+0  50657-3 0  9992
2 44747  53.0400 156.2092 0001352  62.6574 297.4574 15.56227524371295
STARLINK-1043
1 44748U 19074AM  26205.50229250  .00048891  00000+0  43485-3 0  9994
2 44748  53.0465 248.0782 0003554  25.8337 334.2855 15.68029860370003
STARLINK-1046
1 44751U 19074AQ  26205.49043130  .00039187  00000+0  45955-3 0  9999
2 44751  53.0445 272.1184 0004168 298.6464  61.4129 15.61130496369666
STARLINK-1047
1 44752U 19074AR  26205.43971421  .00046013  00000+0  12973-2 0  9996
2 44752  53.0676 225.7100 0001807 322.2422  37.8453 15.35985989370339
STARLINK-1048
1 44753U 19074AS  26205.32414615  .00074572  00000+0  55616-3 0  9995
2 44753  53.0409 219.1155 0000722 141.3307 218.7762 15.72107632370388
STARLINK-1063
1 44768U 19074BH  26205.59782859  .00058488  00000+0  86744-3 0  9992
2 44768  53.1529 290.0130 0004766 337.5335  22.5467 15.54682547369464
STARLINK-1067
1 44771U 19074BL  26205.66668981  .00172070  00000+0  65872-3 0  9996
2 44771  53.0391 245.2226 0008156  12.8147 318.0916 15.86413138  5869
STARLINK-1068
1 44772U 19074BM  26205.61683200  .00112185  00000+0  50504-3 0  9990
2 44772  53.0368 219.8965 0006605  22.8576 337.2739 15.83236796370394
STARLINK-1114
1 44927U 20001P   26205.56661277  .00077408  00000+0  51746-3 0  9995
2 44927  53.0390  20.1022 0002076 290.8698  69.2098 15.74651311361493
STARLINK-1123
1 44930U 20001S   26205.81245735  .00044105  00000+0  44570-3 0  9999
2 44930  53.1398  49.5246 0005163 113.4114 246.7445 15.64890004361123
STARLINK-1094
1 44941U 20001AD  26205.58441255  .00088053  00000+0  10469-2 0  9999
2 44941  53.1495  27.2108 0004133 140.0453 220.0865 15.60426024361428
STARLINK-1122
1 44949U 20001AM  26205.53187315  .00084166  00000+0  10214-2 0  9995
2 44949  53.1524  28.0893 0003906 125.1208 235.0173 15.59910461361405
STARLINK-1080
1 44961U 20001AZ  26205.53186799  .00061009  00000+0  44796-3 0  9998
2 44961  53.0445 340.9133 0001790 226.9691 133.1176 15.72556719362047
STARLINK-1090
1 44968U 20001BG  26205.57261447  .00077214  00000+0  10936-2 0  9996
2 44968  53.1464  16.9202 0003081 130.8156 229.3123 15.55826191361568
STARLINK-1132
1 45044U 20006A   26205.91668980 -.00042005  00000+0 -36913-3 0  9994
2 45044  53.1479 314.2166 0001678  69.7565 155.9280 15.67976691  5946
STARLINK-1131
1 45047U 20006D   26204.45810316  .00061949  00000+0  75179-3 0  9990
2 45047  53.1544 355.3561 0000726  25.5893 334.5156 15.60045119357542
STARLINK-1134
1 45048U 20006E   26205.47983023  .00047498  00000+0  49745-3 0  9993
2 45048  53.0219 297.5475 0005155 265.5207  94.5218 15.63949321358418
STARLINK-1156
1 45054U 20006L   26205.42329002  .00062327  00000+0  15952-2 0  9996
2 45054  53.1581   2.6135 0002079 147.5219 212.5914 15.38847637357525
STARLINK-1166
1 45060U 20006S   26205.83093653  .00060037  00000+0  49207-3 0  9995
2 45060  53.0430 327.7926 0002271 351.6766   8.4212 15.69938260358028
